[
  {
    "CCSDS_OMM_VERS": "3.0",
    "COMMENT": "GENERATED VIA SPACE-TRACK.ORG API",
    "CREATION_DATE": "2026-02-19T19:16:27",
    "ORIGINATOR": "18 SPCS",
    "OBJECT_NAME": "SHIYAN 24C 02",
    "OBJECT_ID": "2023-206B",
    "CENTER_NAME": "EARTH",
    "REF_FRAME": "TEME",
    "TIME_SYSTEM": "UTC",
    "MEAN_ELEMENT_THEORY": "SGP4",
    "EPOCH": "2026-02-19T15:43:08.510304",
    "MEAN_MOTION": "14.97849111",
    "ECCENTRICITY": "0.00027790",
    "INCLINATION": "97.3935",
    "RA_OF_ASC_NODE": "24.5290",
    "ARG_OF_PERICENTER": "119.8062",
    "MEAN_ANOMALY": "240.3438",
    "EPHEMERIS_TYPE": "0",
    "CLASSIFICATION_TYPE": "U",
    "NORAD_CAT_ID": "58651",
    "ELEMENT_SET_NO": "999",
    "REV_AT_EPOCH": "11771",
    "BSTAR": "0.00021570000000",
    "MEAN_MOTION_DOT": "0.00002483",
    "MEAN_MOTION_DDOT": "0.0000000000000",
    "SEMIMAJOR_AXIS": "6951.680",
    "PERIOD": "96.138",
    "APOAPSIS": "575.477",
    "PERIAPSIS": "571.614",
    "OBJECT_TYPE": "PAYLOAD",
    "RCS_SIZE": "MEDIUM",
    "COUNTRY_CODE": "PRC",
    "LAUNCH_DATE": "2023-12-25",
    "SITE": "SCSLA",
    "DECAY_DATE": null,
    "FILE": "5039997",
    "GP_ID": "313187989",
    "TLE_LINE0": "0 SHIYAN 24C 02",
    "TLE_LINE1": "1 58651U 23206B   26050.65495961  .00002483  00000-0  21570-3 0  9991",
    "TLE_LINE2": "2 58651  97.3935  24.5290 0002779 119.8062 240.3438 14.97849111117713"
  },
  {
    "CCSDS_OMM_VERS": "3.0",
    "COMMENT": "GENERATED VIA SPACE-TRACK.ORG API",
    "CREATION_DATE": "2026-02-19T17:59:09",
    "ORIGINATOR": "18 SPCS",
    "OBJECT_NAME": "YAOGAN-30 AF",
    "OBJECT_ID": "2021-065D",
    "CENTER_NAME": "EARTH",
    "REF_FRAME": "TEME",
    "TIME_SYSTEM": "UTC",
    "MEAN_ELEMENT_THEORY": "SGP4",
    "EPOCH": "2026-02-19T15:42:39.676896",
    "MEAN_MOTION": "15.02006988",
    "ECCENTRICITY": "0.00045343",
    "INCLINATION": "34.9942",
    "RA_OF_ASC_NODE": "268.6648",
    "ARG_OF_PERICENTER": "314.4832",
    "MEAN_ANOMALY": "45.5505",
    "EPHEMERIS_TYPE": "0",
    "CLASSIFICATION_TYPE": "U",
    "NORAD_CAT_ID": "49029",
    "ELEMENT_SET_NO": "999",
    "REV_AT_EPOCH": "25097",
    "BSTAR": "0.00020783901000",
    "MEAN_MOTION_DOT": "0.00002751",
    "MEAN_MOTION_DDOT": "0.0000000000000",
    "SEMIMAJOR_AXIS": "6938.845",
    "PERIOD": "95.872",
    "APOAPSIS": "563.857",
    "PERIAPSIS": "557.564",
    "OBJECT_TYPE": "PAYLOAD",
    "RCS_SIZE": "LARGE",
    "COUNTRY_CODE": "PRC",
    "LAUNCH_DATE": "2021-07-19",
    "SITE": "XSC",
    "DECAY_DATE": null,
    "FILE": "5039972",
    "GP_ID": "313174577",
    "TLE_LINE0": "0 YAOGAN-30 AF",
    "TLE_LINE1": "1 49029U 21065D   26050.65462589  .00002751  00000-0  20784-3 0  9995",
    "TLE_LINE2": "2 49029  34.9942 268.6648 0004534 314.4832  45.5505 15.02006988250974"
  },
  {
    "CCSDS_OMM_VERS": "3.0",
    "COMMENT": "GENERATED VIA SPACE-TRACK.ORG API",
    "CREATION_DATE": "2026-02-19T17:59:09",
    "ORIGINATOR": "18 SPCS",
    "OBJECT_NAME": "COSMOS 2384",
    "OBJECT_ID": "2001-058A",
    "CENTER_NAME": "EARTH",
    "REF_FRAME": "TEME",
    "TIME_SYSTEM": "UTC",
    "MEAN_ELEMENT_THEORY": "SGP4",
    "EPOCH": "2026-02-19T15:41:45.143808",
    "MEAN_MOTION": "12.59887960",
    "ECCENTRICITY": "0.00102464",
    "INCLINATION": "82.5480",
    "RA_OF_ASC_NODE": "308.5949",
    "ARG_OF_PERICENTER": "154.8303",
    "MEAN_ANOMALY": "205.3288",
    "EPHEMERIS_TYPE": "0",
    "CLASSIFICATION_TYPE": "U",
    "NORAD_CAT_ID": "27055",
    "ELEMENT_SET_NO": "999",
    "REV_AT_EPOCH": "11025",
    "BSTAR": "0.00014623990000",
    "MEAN_MOTION_DOT": "0.00000036",
    "MEAN_MOTION_DDOT": "0.0000000000000",
    "SEMIMAJOR_AXIS": "7801.544",
    "PERIOD": "114.296",
    "APOAPSIS": "1431.403",
    "PERIAPSIS": "1415.415",
    "OBJECT_TYPE": "PAYLOAD",
    "RCS_SIZE": "MEDIUM",
    "COUNTRY_CODE": "CIS",
    "LAUNCH_DATE": "2001-12-28",
    "SITE": "PKMTR",
    "DECAY_DATE": null,
    "FILE": "5039972",
    "GP_ID": "313162670",
    "TLE_LINE0": "0 COSMOS 2384",
    "TLE_LINE1": "1 27055U 01058A   26050.65399472  .00000036  00000-0  14624-3 0  9990",
    "TLE_LINE2": "2 27055  82.5480 308.5949 0010246 154.8303 205.3288 12.59887960110255"
  },
  {
    "CCSDS_OMM_VERS": "3.0",
    "COMMENT": "GENERATED VIA SPACE-TRACK.ORG API",
    "CREATION_DATE": "2026-02-19T19:16:27",
    "ORIGINATOR": "18 SPCS",
    "OBJECT_NAME": "SHIYAN 24C 03",
    "OBJECT_ID": "2023-206C",
    "CENTER_NAME": "EARTH",
    "REF_FRAME": "TEME",
    "TIME_SYSTEM": "UTC",
    "MEAN_ELEMENT_THEORY": "SGP4",
    "EPOCH": "2026-02-19T15:41:45.125664",
    "MEAN_MOTION": "14.97816441",
    "ECCENTRICITY": "0.00021860",
    "INCLINATION": "97.3919",
    "RA_OF_ASC_NODE": "24.4773",
    "ARG_OF_PERICENTER": "93.8789",
    "MEAN_ANOMALY": "266.2684",
    "EPHEMERIS_TYPE": "0",
    "CLASSIFICATION_TYPE": "U",
    "NORAD_CAT_ID": "58652",
    "ELEMENT_SET_NO": "999",
    "REV_AT_EPOCH": "11770",
    "BSTAR": "0.00012732000000",
    "MEAN_MOTION_DOT": "0.00001442",
    "MEAN_MOTION_DDOT": "0.0000000000000",
    "SEMIMAJOR_AXIS": "6951.781",
    "PERIOD": "96.140",
    "APOAPSIS": "575.166",
    "PERIAPSIS": "572.127",
    "OBJECT_TYPE": "PAYLOAD",
    "RCS_SIZE": "MEDIUM",
    "COUNTRY_CODE": "PRC",
    "LAUNCH_DATE": "2023-12-25",
    "SITE": "SCSLA",
    "DECAY_DATE": null,
    "FILE": "5039997",
    "GP_ID": "313188006",
    "TLE_LINE0": "0 SHIYAN 24C 03",
    "TLE_LINE1": "1 58652U 23206C   26050.65399451  .00001442  00000-0  12732-3 0  9993",
    "TLE_LINE2": "2 58652  97.3919  24.4773 0002186  93.8789 266.2684 14.97816441117709"
  },
  {
    "CCSDS_OMM_VERS": "3.0",
    "COMMENT": "GENERATED VIA SPACE-TRACK.ORG API",
    "CREATION_DATE": "2026-02-19T17:59:09",
    "ORIGINATOR": "18 SPCS",
    "OBJECT_NAME": "ZY 1",
    "OBJECT_ID": "2011-079A",
    "CENTER_NAME": "EARTH",
    "REF_FRAME": "TEME",
    "TIME_SYSTEM": "UTC",
    "MEAN_ELEMENT_THEORY": "SGP4",
    "EPOCH": "2026-02-19T15:41:00.710016",
    "MEAN_MOTION": "14.38104202",
    "ECCENTRICITY": "0.00054229",
    "INCLINATION": "98.4213",
    "RA_OF_ASC_NODE": "120.3634",
    "ARG_OF_PERICENTER": "305.9044",
    "MEAN_ANOMALY": "207.9578",
    "EPHEMERIS_TYPE": "0",
    "CLASSIFICATION_TYPE": "U",
    "NORAD_CAT_ID": "38038",
    "ELEMENT_SET_NO": "999",
    "REV_AT_EPOCH": "74231",
    "BSTAR": "0.00021829163000",
    "MEAN_MOTION_DOT": "0.00000618",
    "MEAN_MOTION_DDOT": "0.0000000000000",
    "SEMIMAJOR_AXIS": "7142.906",
    "PERIOD": "100.132",
    "APOAPSIS": "768.645",
    "PERIAPSIS": "760.898",
    "OBJECT_TYPE": "PAYLOAD",
    "RCS_SIZE": "LARGE",
    "COUNTRY_CODE": "PRC",
    "LAUNCH_DATE": "2011-12-22",
    "SITE": "TSC",
    "DECAY_DATE": null,
    "FILE": "5039972",
    "GP_ID": "313168613",
    "TLE_LINE0": "0 ZY 1",
    "TLE_LINE1": "1 38038U 11079A   26050.65348044  .00000618  00000-0  21829-3 0  9997",
    "TLE_LINE2": "2 38038  98.4213 120.3634 0005423 305.9044 207.9578 14.38104202742319"
  },
  {
    "CCSDS_OMM_VERS": "3.0",
    "COMMENT": "GENERATED VIA SPACE-TRACK.ORG API",
    "CREATION_DATE": "2026-02-19T16:36:22",
    "ORIGINATOR": "18 SPCS",
    "OBJECT_NAME": "KANOPUS-V 3",
    "OBJECT_ID": "2018-014A",
    "CENTER_NAME": "EARTH",
    "REF_FRAME": "TEME",
    "TIME_SYSTEM": "UTC",
    "MEAN_ELEMENT_THEORY": "SGP4",
    "EPOCH": "2026-02-19T15:40:29.866944",
    "MEAN_MOTION": "15.23405934",
    "ECCENTRICITY": "0.00017510",
    "INCLINATION": "97.3664",
    "RA_OF_ASC_NODE": "318.5320",
    "ARG_OF_PERICENTER": "83.0707",
    "MEAN_ANOMALY": "277.0730",
    "EPHEMERIS_TYPE": "0",
    "CLASSIFICATION_TYPE": "U",
    "NORAD_CAT_ID": "43180",
    "ELEMENT_SET_NO": "999",
    "REV_AT_EPOCH": "44683",
    "BSTAR": "0.00013469000000",
    "MEAN_MOTION_DOT": "0.00003135",
    "MEAN_MOTION_DDOT": "0.0000000000000",
    "SEMIMAJOR_AXIS": "6873.713",
    "PERIOD": "94.525",
    "APOAPSIS": "496.782",
    "PERIAPSIS": "494.375",
    "OBJECT_TYPE": "PAYLOAD",
    "RCS_SIZE": "LARGE",
    "COUNTRY_CODE": "CIS",
    "LAUNCH_DATE": "2018-02-01",
    "SITE": "VOSTO",
    "DECAY_DATE": null,
    "FILE": "5039930",
    "GP_ID": "313155199",
    "TLE_LINE0": "0 KANOPUS-V 3",
    "TLE_LINE1": "1 43180U 18014A   26050.65312346  .00003135  00000-0  13469-3 0  9991",
    "TLE_LINE2": "2 43180  97.3664 318.5320 0001751  83.0707 277.0730 15.23405934446831"
  },
  {
    "CCSDS_OMM_VERS": "3.0",
    "COMMENT": "GENERATED VIA SPACE-TRACK.ORG API",
    "CREATION_DATE": "2026-02-19T17:59:09",
    "ORIGINATOR": "18 SPCS",
    "OBJECT_NAME": "EINSTEIN PROBE",
    "OBJECT_ID": "2024-007A",
    "CENTER_NAME": "EARTH",
    "REF_FRAME": "TEME",
    "TIME_SYSTEM": "UTC",
    "MEAN_ELEMENT_THEORY": "SGP4",
    "EPOCH": "2026-02-19T15:40:01.330752",
    "MEAN_MOTION": "15.01191602",
    "ECCENTRICITY": "0.00100519",
    "INCLINATION": "28.9974",
    "RA_OF_ASC_NODE": "257.5451",
    "ARG_OF_PERICENTER": "61.3685",
    "MEAN_ANOMALY": "298.7924",
    "EPHEMERIS_TYPE": "0",
    "CLASSIFICATION_TYPE": "U",
    "NORAD_CAT_ID": "58753",
    "ELEMENT_SET_NO": "999",
    "REV_AT_EPOCH": "11588",
    "BSTAR": "0.00021617131000",
    "MEAN_MOTION_DOT": "0.00002993",
    "MEAN_MOTION_DDOT": "0.0000000000000",
    "SEMIMAJOR_AXIS": "6941.358",
    "PERIOD": "95.924",
    "APOAPSIS": "570.200",
    "PERIAPSIS": "556.245",
    "OBJECT_TYPE": "PAYLOAD",
    "RCS_SIZE": "LARGE",
    "COUNTRY_CODE": "PRC",
    "LAUNCH_DATE": "2024-01-09",
    "SITE": "XSC",
    "DECAY_DATE": null,
    "FILE": "5039972",
    "GP_ID": "313179929",
    "TLE_LINE0": "0 EINSTEIN PROBE",
    "TLE_LINE1": "1 58753U 24007A   26050.65279318  .00002993  00000-0  21617-3 0  9998",
    "TLE_LINE2": "2 58753  28.9974 257.5451 0010052  61.3685 298.7924 15.01191602115885"
  }
]